[{"OBJECT_NAME":"HAWK-6B","OBJECT_ID":"2023-011A","EPOCH":"2026-03-09T09:51:17.950752","MEAN_MOTION":15.21905453,"ECCENTRICITY":0.00019203,"INCLINATION":40.5121,"RA_OF_ASC_NODE":213.6048,"ARG_OF_PERICENTER":18.2889,"MEAN_ANOMALY":341.7989,"EPHEMERIS_TYPE":0,"CLASSIFICATION_TYPE":"U","NORAD_CAT_ID":55324,"ELEMENT_SET_NO":999,"REV_AT_EPOCH":17263,"BSTAR":0.00033476386,"MEAN_MOTION_DOT":7.596e-5,"MEAN_MOTION_DDOT":0},{"OBJECT_NAME":"ELARASAT MMS-1","OBJECT_ID":"2025-135M","EPOCH":"2026-03-09T20:37:48.295200","MEAN_MOTION":15.21931569,"ECCENTRICITY":0.0004021,"INCLINATION":97.4601,"RA_OF_ASC_NODE":185.0311,"ARG_OF_PERICENTER":148.9941,"MEAN_ANOMALY":211.1534,"EPHEMERIS_TYPE":0,"CLASSIFICATION_TYPE":"U","NORAD_CAT_ID":64539,"ELEMENT_SET_NO":999,"REV_AT_EPOCH":3976,"BSTAR":0.00049586231,"MEAN_MOTION_DOT":0.00011239,"MEAN_MOTION_DDOT":0}]
